STARLINK-1008
1 44714U 19074B   26196.77557531  .00043591  00000+0  67455-3 0  9996
2 44714  53.1500 291.4766 0004743 324.0088  36.0603 15.53643001368658
STARLINK-1012
1 44718U 19074F   26197.27977830  .00041985  00000+0  63949-3 0  9993
2 44718  53.1542 289.2586 0005101 330.4312  29.6410 15.54094455368729
STARLINK-1017
1 44723U 19074L   26197.27675148  .00015256  00000+0  46328-3 0  9990
2 44723  53.0461 293.3411 0000933  90.0887 270.0221 15.34290987368640
STARLINK-1020
1 44725U 19074N   26196.71603407  .00070910  00000+0  85999-3 0  9994
2 44725  53.1561 314.5042 0004502 281.9369  78.1140 15.59996239368302
STARLINK-1036
1 44741U 19074AE  26197.21059476  .00047922  00000+0  28431-3 0  9994
2 44741  53.0405 276.0719 0003938  10.4076 349.7025 15.77563995368871
STARLINK-1039
1 44744U 19074AH  26196.66273897  .00028171  00000+0  92856-3 0  9997
2 44744  53.0615 342.4512 0001321 183.1136 176.9856 15.31264014367900
STARLINK-1042
1 44747U 19074AL  26197.17177551  .00012728  00000+0  18716-3 0  9991
2 44747  53.0395 195.4042 0001170  50.1843 309.9271 15.55878165370033
STARLINK-1043
1 44748U 19074AM  26196.57682922  .00031605  00000+0  29230-3 0  9996
2 44748  53.0483 292.0552 0002237   4.2204 355.8830 15.67277415368603
STARLINK-1046
1 44751U 19074AQ  26197.29423701  .00044956  00000+0  54189-3 0  9992
2 44751  53.0458 312.0955 0003350 256.8135 103.2503 15.60353323368387
STARLINK-1047
1 44752U 19074AR  26196.45868543  .00025655  00000+0  74146-3 0  9997
2 44752  53.0691 267.8676 0001259 259.8643 100.2217 15.35499992368954
STARLINK-1048
1 44753U 19074AS  26196.48504795  .00036086  00000+0  28234-3 0  9994
2 44753  53.0428 262.9316 0001543 138.8949 221.2185 15.71280809368998
STARLINK-1063
1 44768U 19074BH  26197.23831306  .00044765  00000+0  68864-3 0  9991
2 44768  53.1546 330.2845 0002937 302.7570  57.3158 15.53800001368161
STARLINK-1067
1 44771U 19074BL  26197.33336806 -.00025386  00000+0 -10511-3 0  9997
2 44771  53.0401 287.3762 0006576 344.2724 279.0851 15.84545484  6010
STARLINK-1068
1 44772U 19074BM  26197.28005359  .00062894  00000+0  30625-3 0  9999
2 44772  53.0377 261.8909 0006102 355.0965   4.9996 15.81790604369071
STARLINK-1114
1 44927U 20001P   26197.12227768  .00045078  00000+0  31724-3 0  9992
2 44927  53.0398  62.1166 0001305 213.0354 147.0583 15.73680616360162
ASTROSAT
1 40930U 15052A   26197.15315926  .00001103  00000+0  52606-4 0  9993
2 40930   5.9975 306.8559 0007389  88.5039 271.5935 14.82553079584136
CARTOSAT-3
1 44804U 19081A   26197.26895316  .00001502  00000+0  74512-4 0  9994
2 44804  97.4294 258.6657 0012937  55.6616 304.5841 15.19188030367880
IRNSS-1B
1 39635U 14017A   26196.71042329  .00000127  00000+0  00000+0 0  9999
2 39635  28.8748 239.9111 0022284 191.7753 172.7664  1.00275936 45085
CARTOSAT-2D
1 41948U 17008A   26197.27019644  .00002286  00000+0  11150-3 0  9998
2 41948  97.4092 256.0302 0006128 135.0747 225.0985 15.19289941521997
IRNSS-1I
1 43286U 18035A   26196.75461519  .00000058  00000+0  00000+0 0  9993
2 43286  28.8196  73.7504 0018428 178.5609   8.0026  1.00271937 30362
